{"fetched_at":"2026-03-30T09:12:31Z","count":15922,"tles":[{"name":"STARLINK-31169","line1":"1 58809U 24012Y   26087.64338342  .00000685  00000+0  34416-4 0  9995","line2":"2 58809  43.0047  58.2915 0001089 266.3597  93.7130 15.27574928124130","category":"Starlink"}]}